{
"type": "FeatureCollection",
"name": "paintings.example",
"crs": { "type": "name", "properties": { "name": "urn:ogc:def:crs:OGC:1.3:CRS84" } },
"features": [
{ "type": "Feature", "properties": { "name": "MOUNT MAUNGANUI", "shopify_link": "https://jackdonald.co.nz/products/mount-maunganui-1", "image_url": "https://jackdonald.co.nz/cdn/shop/files/MOUNTMAINBOARDERED.jpg?v=1777339493&width=533", "description": "Day 100 of New Zealand Beaches / Surf Breaks series", "dupe": null, "lat": -37.631162, "lon": 176.177831, "check": null, "day_number": 100.0 }, "geometry": { "type": "Point", "coordinates": [ 176.177831, -37.631162 ] } },
{ "type": "Feature", "properties": { "name": "WHALE BAY", "shopify_link": "https://jackdonald.co.nz/products/whale-bay-1", "image_url": "https://jackdonald.co.nz/cdn/shop/files/WHALEBAYBOARDERED.jpg?v=1777339404&width=533", "description": "Day 99 of New Zealand Beaches / Surf Breaks series", "dupe": null, "lat": -37.823425, "lon": 174.79984, "check": null, "day_number": 99.0 }, "geometry": { "type": "Point", "coordinates": [ 174.79984, -37.823425 ] } },
{ "type": "Feature", "properties": { "name": "RARAWA BEACH", "shopify_link": "https://jackdonald.co.nz/products/rarawa-beach", "image_url": "https://jackdonald.co.nz/cdn/shop/files/RARAWABOARDERED.jpg?v=1777339314&width=533", "description": "Day 98 of New Zealand Beaches / Surf Breaks series", "dupe": null, "lat": -34.716967, "lon": 173.076852, "check": null, "day_number": 98.0 }, "geometry": { "type": "Point", "coordinates": [ 173.076852, -34.716967 ] } },
{ "type": "Feature", "properties": { "name": "FORESTRY BEACH", "shopify_link": "https://jackdonald.co.nz/products/forestry-beach", "image_url": "https://jackdonald.co.nz/cdn/shop/files/FORESTRYBOARDER.jpg?v=1777339233&width=533", "description": "Day 97 of New Zealand Beaches / Surf Breaks series", "dupe": null, "lat": -36.166175, "lon": 174.650538, "check": null, "day_number": 97.0 }, "geometry": { "type": "Point", "coordinates": [ 174.650538, -36.166175 ] } },
{ "type": "Feature", "properties": { "name": "POKOHINO BEACH", "shopify_link": "https://jackdonald.co.nz/products/pokohino-beach", "image_url": "https://jackdonald.co.nz/cdn/shop/files/POKOHINOBEACH.jpg?v=1777339111&width=533", "description": "Day 96 of New Zealand Beaches / Surf Breaks series", "dupe": null, "lat": -37.137806, "lon": 175.883765, "check": null, "day_number": 96.0 }, "geometry": { "type": "Point", "coordinates": [ 175.883765, -37.137806 ] } },
{ "type": "Feature", "properties": { "name": "STENT ROAD", "shopify_link": "https://jackdonald.co.nz/products/stent-road", "image_url": "https://jackdonald.co.nz/cdn/shop/files/STENTROADBOARDERED.jpg?v=1777339038&width=533", "description": "Day 95 of New Zealand Beaches / Surf Breaks series", "dupe": null, "lat": -39.219589, "lon": 173.778761, "check": null, "day_number": 95.0 }, "geometry": { "type": "Point", "coordinates": [ 173.778761, -39.219589 ] } },
{ "type": "Feature", "properties": { "name": "SUNSET BEACH", "shopify_link": "https://jackdonald.co.nz/products/sunset-beach", "image_url": "https://jackdonald.co.nz/cdn/shop/files/SUNSETBEACHBOARDERED.jpg?v=1777338895&width=533", "description": "Day 93 of New Zealand Beaches / Surf Breaks series", "dupe": null, "lat": -37.39751139, "lon": 174.7106931, "check": null, "day_number": 94.0 }, "geometry": { "type": "Point", "coordinates": [ 174.710693099999986, -37.39751139 ] } },
{ "type": "Feature", "properties": { "name": "OPUNAKE BEACH", "shopify_link": "https://jackdonald.co.nz/products/opunake", "image_url": "https://jackdonald.co.nz/cdn/shop/files/OPUNAKEBOARDER.jpg?v=1777338959&width=533", "description": "Day 94 of New Zealand Beaches / Surf Breaks series", "dupe": null, "lat": -39.45842701, "lon": 173.8561404, "check": null, "day_number": 93.0 }, "geometry": { "type": "Point", "coordinates": [ 173.856140399999987, -39.45842701 ] } },
{ "type": "Feature", "properties": { "name": "OREWA BEACH", "shopify_link": "https://jackdonald.co.nz/products/orewa-beach", "image_url": "https://jackdonald.co.nz/cdn/shop/files/OREWA.jpg?v=1770196339&width=533", "description": "Day 92 of New Zealand Beaches / Surf Breaks series", "dupe": null, "lat": -36.58664293, "lon": 174.6971829, "check": null, "day_number": 92.0 }, "geometry": { "type": "Point", "coordinates": [ 174.6971829, -36.58664293 ] } },
{ "type": "Feature", "properties": { "name": "LE BONS BAY", "shopify_link": "https://jackdonald.co.nz/products/le-bons-bay", "image_url": "https://jackdonald.co.nz/cdn/shop/files/LEBONSBAY.jpg?v=1770196274&width=533", "description": "Day 91 of New Zealand Beaches / Surf Breaks series", "dupe": null, "lat": -43.7408123, "lon": 173.0963793, "check": null, "day_number": 91.0 }, "geometry": { "type": "Point", "coordinates": [ 173.0963793, -43.7408123 ] } },
{ "type": "Feature", "properties": { "name": "WHALE BAY", "shopify_link": "https://jackdonald.co.nz/products/whale-bay", "image_url": "https://jackdonald.co.nz/cdn/shop/files/WHALEBAY.jpg?v=1770196117&width=533", "description": "Day 90 of New Zealand Beaches / Surf Breaks series", "dupe": null, "lat": -35.55842436, "lon": 174.5003452, "check": null, "day_number": 90.0 }, "geometry": { "type": "Point", "coordinates": [ 174.5003452, -35.55842436 ] } },
{ "type": "Feature", "properties": { "name": "OMAHA BEACH", "shopify_link": "https://jackdonald.co.nz/products/omaha-beach", "image_url": "https://jackdonald.co.nz/cdn/shop/files/OMAHA.jpg?v=1770196056&width=533", "description": "Day 89 of New Zealand Beaches / Surf Breaks series", "dupe": null, "lat": -36.33811666, "lon": 174.7810801, "check": null, "day_number": 89.0 }, "geometry": { "type": "Point", "coordinates": [ 174.7810801, -36.33811666 ] } },
{ "type": "Feature", "properties": { "name": "RAPAHOE BEACH", "shopify_link": "https://jackdonald.co.nz/products/rapahoe-beach", "image_url": "https://jackdonald.co.nz/cdn/shop/files/RAPAHOE.jpg?v=1770195987&width=533", "description": "Day 88 of New Zealand Beaches / Surf Breaks series", "dupe": null, "lat": -42.37513733, "lon": 171.2385523, "check": null, "day_number": 88.0 }, "geometry": { "type": "Point", "coordinates": [ 171.2385523, -42.37513733 ] } },
{ "type": "Feature", "properties": { "name": "MURDERERS BEACH", "shopify_link": "https://jackdonald.co.nz/products/murderers-beach", "image_url": "https://jackdonald.co.nz/cdn/shop/files/MURDERERS.jpg?v=1770195914&width=533", "description": "Day 87 of New Zealand Beaches / Surf Breaks series", "dupe": null, "lat": -45.76227176, "lon": 170.6690789, "check": null, "day_number": 87.0 }, "geometry": { "type": "Point", "coordinates": [ 170.669078899999988, -45.76227176 ] } },
{ "type": "Feature", "properties": { "name": "ONETANGI BEACH", "shopify_link": "https://jackdonald.co.nz/products/onetangi-beach", "image_url": "https://jackdonald.co.nz/cdn/shop/files/ONETANGIBEACH_ed515cd6-c0cb-48ee-bcc7-9c6230d638ba.jpg?v=1770261441&width=533", "description": "Day 86 of New Zealand Beaches / Surf Breaks series", "dupe": null, "lat": -36.78726041, "lon": 175.0775584, "check": null, "day_number": 86.0 }, "geometry": { "type": "Point", "coordinates": [ 175.077558399999987, -36.78726041 ] } },
{ "type": "Feature", "properties": { "name": "ELLIOT BAY", "shopify_link": "https://jackdonald.co.nz/products/elliot-bay", "image_url": "https://jackdonald.co.nz/cdn/shop/files/ELLIOTBAY.jpg?v=1770195802&width=533", "description": "Day 85 of New Zealand Beaches / Surf Breaks series", "dupe": null, "lat": -35.27395237, "lon": 174.2898834, "check": null, "day_number": 85.0 }, "geometry": { "type": "Point", "coordinates": [ 174.2898834, -35.27395237 ] } },
{ "type": "Feature", "properties": { "name": "BLAND BAY", "shopify_link": "https://jackdonald.co.nz/products/bland-bay", "image_url": "https://jackdonald.co.nz/cdn/shop/files/BLANDBAY.jpg?v=1770195743&width=533", "description": "Day 84 of New Zealand Beaches / Surf Breaks series", "dupe": null, "lat": -35.34470173, "lon": 174.353498, "check": null, "day_number": 84.0 }, "geometry": { "type": "Point", "coordinates": [ 174.353498, -35.34470173 ] } },
{ "type": "Feature", "properties": { "name": "OCEAN BEACH", "shopify_link": "https://jackdonald.co.nz/products/ocean-beach-1", "image_url": "https://jackdonald.co.nz/cdn/shop/files/OCEANBEACH.jpg?v=1770195685&width=533", "description": "Day 83 of New Zealand Beaches / Surf Breaks series", "dupe": null, "lat": -39.74128679, "lon": 177.0124599, "check": null, "day_number": 83.0 }, "geometry": { "type": "Point", "coordinates": [ 177.01245990000001, -39.74128679 ] } },
{ "type": "Feature", "properties": { "name": "PUKEHINA", "shopify_link": "https://jackdonald.co.nz/products/pukehina", "image_url": "https://jackdonald.co.nz/cdn/shop/files/PUKEHINA.jpg?v=1770195624&width=533", "description": "Day 82 of New Zealand Beaches / Surf Breaks series", "dupe": null, "lat": -37.75472134, "lon": 176.4790372, "check": null, "day_number": 82.0 }, "geometry": { "type": "Point", "coordinates": [ 176.4790372, -37.75472134 ] } },
{ "type": "Feature", "properties": { "name": "OKE BAY", "shopify_link": "https://jackdonald.co.nz/products/oke-bay", "image_url": "https://jackdonald.co.nz/cdn/shop/files/OKEBAY_fd8ba83e-8cab-46ea-b08e-e1444ecb7759.jpg?v=1777338628&width=533", "description": "Day 81 of New Zealand Beaches / Surf Breaks series", "dupe": null, "lat": -35.22892285, "lon": 174.2648296, "check": null, "day_number": 81.0 }, "geometry": { "type": "Point", "coordinates": [ 174.264829600000013, -35.22892285 ] } },
{ "type": "Feature", "properties": { "name": "BREAKER BAY", "shopify_link": "https://jackdonald.co.nz/products/breaker-bay", "image_url": "https://jackdonald.co.nz/cdn/shop/files/BREAKERBAYBOARD.jpg?v=1765330807&width=533", "description": "Day 80 of New Zealand Beaches / Surf Breaks series", "dupe": null, "lat": -41.33003261, "lon": 174.8336514, "check": null, "day_number": 80.0 }, "geometry": { "type": "Point", "coordinates": [ 174.8336514, -41.33003261 ] } },
{ "type": "Feature", "properties": { "name": "TOLAGA BAY", "shopify_link": "https://jackdonald.co.nz/products/tolaga-bay", "image_url": "https://jackdonald.co.nz/cdn/shop/files/TOLAGABAYBOARD.jpg?v=1765330756&width=533", "description": "Day 79 of New Zealand Beaches / Surf Breaks series", "dupe": null, "lat": -38.37746782, "lon": 178.3118845, "check": null, "day_number": 79.0 }, "geometry": { "type": "Point", "coordinates": [ 178.3118845, -38.37746782 ] } },
{ "type": "Feature", "properties": { "name": "BRIGHTON BEACH", "shopify_link": "https://jackdonald.co.nz/products/brighton-beach", "image_url": "https://jackdonald.co.nz/cdn/shop/files/BRIGHTONBOARD.jpg?v=1765330694&width=533", "description": "Day 78 of New Zealand Beaches / Surf Breaks series", "dupe": null, "lat": -45.94659772, "lon": 170.3355519, "check": null, "day_number": 78.0 }, "geometry": { "type": "Point", "coordinates": [ 170.335551900000013, -45.94659772 ] } },
{ "type": "Feature", "properties": { "name": "RAUMATI BEACH", "shopify_link": "https://jackdonald.co.nz/products/raumati-beach", "image_url": "https://jackdonald.co.nz/cdn/shop/files/RAUMATIBEACH.jpg?v=1765330642&width=533", "description": "Day 77 of New Zealand Beaches / Surf Breaks series", "dupe": null, "lat": -40.91808941, "lon": 174.9777327, "check": null, "day_number": 77.0 }, "geometry": { "type": "Point", "coordinates": [ 174.9777327, -40.91808941 ] } },
{ "type": "Feature", "properties": { "name": "TAURANGA BAY", "shopify_link": "https://jackdonald.co.nz/products/tauranga-bay-1", "image_url": "https://jackdonald.co.nz/cdn/shop/files/TAURANGABAYBOARD_f6ca451a-5b25-4f15-94a7-aa3a60e264c3.jpg?v=1765330569&width=533", "description": "Day 76 of New Zealand Beaches / Surf Breaks series", "dupe": null, "lat": -35.006747, "lon": 173.781888, "check": null, "day_number": 76.0 }, "geometry": { "type": "Point", "coordinates": [ 173.781888, -35.006747 ] } },
{ "type": "Feature", "properties": { "name": "HICKS BAY", "shopify_link": "https://jackdonald.co.nz/products/hicks-bay", "image_url": "https://jackdonald.co.nz/cdn/shop/files/HICKSBAYBOARD.jpg?v=1765330494&width=533", "description": "Day 75 of New Zealand Beaches / Surf Breaks series", "dupe": null, "lat": -37.58657351, "lon": 178.29546, "check": null, "day_number": 75.0 }, "geometry": { "type": "Point", "coordinates": [ 178.29546, -37.58657351 ] } },
{ "type": "Feature", "properties": { "name": "ANAWHATA BEACH", "shopify_link": "https://jackdonald.co.nz/products/anawhata-beach", "image_url": "https://jackdonald.co.nz/cdn/shop/files/ANAWHATABOARD.jpg?v=1765330427&width=533", "description": "Day 74 of New Zealand Beaches / Surf Breaks series", "dupe": null, "lat": -36.92043254, "lon": 174.453757, "check": null, "day_number": 74.0 }, "geometry": { "type": "Point", "coordinates": [ 174.453757, -36.92043254 ] } },
{ "type": "Feature", "properties": { "name": "MAKETU", "shopify_link": "https://jackdonald.co.nz/products/maketu", "image_url": "https://jackdonald.co.nz/cdn/shop/files/MAKETUBOARD.jpg?v=1765330368&width=533", "description": "Day 73 of New Zealand Beaches / Surf Breaks series", "dupe": null, "lat": -37.74849161, "lon": 176.463511, "check": null, "day_number": 73.0 }, "geometry": { "type": "Point", "coordinates": [ 176.463511, -37.74849161 ] } },
{ "type": "Feature", "properties": { "name": "CATHEDRAL COVE", "shopify_link": "https://jackdonald.co.nz/products/cathedral-cove", "image_url": "https://jackdonald.co.nz/cdn/shop/files/CATHEDRALCOVEBOARD.jpg?v=1765330303&width=533", "description": "Day 72 of New Zealand Beaches / Surf Breaks series", "dupe": null, "lat": -36.82830735, "lon": 175.7900121, "check": null, "day_number": 72.0 }, "geometry": { "type": "Point", "coordinates": [ 175.790012100000013, -36.82830735 ] } },
{ "type": "Feature", "properties": { "name": "MAGNET BAY", "shopify_link": "https://jackdonald.co.nz/products/magnet-bay", "image_url": "https://jackdonald.co.nz/cdn/shop/files/MAGNETBAYBOARD.jpg?v=1765330229&width=533", "description": "Day 71 of New Zealand Beaches / Surf Breaks series", "dupe": null, "lat": -43.84320272, "lon": 172.7410392, "check": null, "day_number": 71.0 }, "geometry": { "type": "Point", "coordinates": [ 172.741039199999989, -43.84320272 ] } },
{ "type": "Feature", "properties": { "name": "OMANU BEACH", "shopify_link": "https://jackdonald.co.nz/products/omanu-beach", "image_url": "https://jackdonald.co.nz/cdn/shop/files/OMANUBOARDERD.jpg?v=1761113088&width=533", "description": "Day 70 of New Zealand Beaches / Surf Breaks series", "dupe": null, "lat": -37.65864931, "lon": 176.2160737, "check": 1.0, "day_number": 70.0 }, "geometry": { "type": "Point", "coordinates": [ 176.21607370000001, -37.65864931 ] } },
{ "type": "Feature", "properties": { "name": "NEW CHUMS", "shopify_link": "https://jackdonald.co.nz/products/new-chums", "image_url": "https://jackdonald.co.nz/cdn/shop/files/NEWCHUMSBOARDERD_f796754d-5011-4d29-b32f-234efce57323.jpg?v=1761113011&width=533", "description": "Day 69 of New Zealand Beaches / Surf Breaks series", "dupe": null, "lat": -36.69870873, "lon": 175.6071747, "check": null, "day_number": 69.0 }, "geometry": { "type": "Point", "coordinates": [ 175.6071747, -36.69870873 ] } },
{ "type": "Feature", "properties": { "name": "WHARARIKI BEACH", "shopify_link": "https://jackdonald.co.nz/products/wharariki-beach", "image_url": "https://jackdonald.co.nz/cdn/shop/files/WHARARIKIBOARDERD.jpg?v=1761112792&width=533", "description": "Day 68 of New Zealand Beaches / Surf Breaks series", "dupe": null, "lat": -40.50421058, "lon": 172.6733131, "check": null, "day_number": 68.0 }, "geometry": { "type": "Point", "coordinates": [ 172.6733131, -40.50421058 ] } },
{ "type": "Feature", "properties": { "name": "BLACKS BEACH", "shopify_link": "https://jackdonald.co.nz/products/blacks-beach", "image_url": "https://jackdonald.co.nz/cdn/shop/files/BLACKSBEACHBOARDERD.jpg?v=1761112743&width=533", "description": "Day 67 of New Zealand Beaches / Surf Breaks series", "dupe": null, "lat": -39.06800527, "lon": 177.7991532, "check": 1.0, "day_number": 67.0 }, "geometry": { "type": "Point", "coordinates": [ 177.7991532, -39.06800527 ] } },
{ "type": "Feature", "properties": { "name": "HENDERSON BAY", "shopify_link": "https://jackdonald.co.nz/products/henderson-bay", "image_url": "https://jackdonald.co.nz/cdn/shop/files/HENDERSONBAYBOARDERD.jpg?v=1761112652&width=533", "description": "Day 66 of New Zealand Beaches / Surf Breaks series", "dupe": null, "lat": -34.74793074, "lon": 173.1210371, "check": null, "day_number": 66.0 }, "geometry": { "type": "Point", "coordinates": [ 173.1210371, -34.74793074 ] } },
{ "type": "Feature", "properties": { "name": "TITAHI BAY", "shopify_link": "https://jackdonald.co.nz/products/titahi-bay", "image_url": "https://jackdonald.co.nz/cdn/shop/files/TITAHIBAYBOARDERD.jpg?v=1761112586&width=533", "description": "Day 65 of New Zealand Beaches / Surf Breaks series", "dupe": null, "lat": -41.10626958, "lon": 174.8349913, "check": null, "day_number": 65.0 }, "geometry": { "type": "Point", "coordinates": [ 174.834991300000013, -41.10626958 ] } },
{ "type": "Feature", "properties": { "name": "COLAC BAY", "shopify_link": "https://jackdonald.co.nz/products/colac-bay", "image_url": "https://jackdonald.co.nz/cdn/shop/files/COLACBAYBOARDERD_a23ec6d8-3baa-4bf8-8edc-2cdb92d3d907.jpg?v=1761112509&width=533", "description": "Day 64 of New Zealand Beaches / Surf Breaks series", "dupe": null, "lat": -46.36507868, "lon": 167.8835346, "check": null, "day_number": 64.0 }, "geometry": { "type": "Point", "coordinates": [ 167.8835346, -46.36507868 ] } },
{ "type": "Feature", "properties": { "name": "TAYLORS MISTAKE", "shopify_link": "https://jackdonald.co.nz/products/taylors-mistake", "image_url": "https://jackdonald.co.nz/cdn/shop/files/TAYLORSMISTAKEBoarder.jpg?v=1761112408&width=533", "description": "Day 63 of New Zealand Beaches / Surf Breaks series", "dupe": null, "lat": -43.58358528, "lon": 172.7769054, "check": null, "day_number": 63.0 }, "geometry": { "type": "Point", "coordinates": [ 172.7769054, -43.58358528 ] } },
{ "type": "Feature", "properties": { "name": "ARAMOANA", "shopify_link": "https://jackdonald.co.nz/products/aramoana", "image_url": "https://jackdonald.co.nz/cdn/shop/files/ARAMOANABOARDED.jpg?v=1761112109&width=533", "description": "Day 62 of New Zealand Beaches / Surf Breaks series", "dupe": null, "lat": -45.77168871, "lon": 170.7022338, "check": null, "day_number": 62.0 }, "geometry": { "type": "Point", "coordinates": [ 170.702233799999988, -45.77168871 ] } },
{ "type": "Feature", "properties": { "name": "MURIWAI", "shopify_link": "https://jackdonald.co.nz/products/muriwai", "image_url": "https://jackdonald.co.nz/cdn/shop/files/MURIWAIBOARDED.jpg?v=1761112009&width=533", "description": "Day 61 of New Zealand Beaches / Surf Breaks series", "dupe": null, "lat": -36.8288959, "lon": 174.4261497, "check": null, "day_number": 61.0 }, "geometry": { "type": "Point", "coordinates": [ 174.4261497, -36.8288959 ] } },
{ "type": "Feature", "properties": { "name": "FITZROY BEACH", "shopify_link": "https://jackdonald.co.nz/products/fitzroy-beach", "image_url": "https://jackdonald.co.nz/cdn/shop/files/FITZROYBOARDERD.jpg?v=1761111903&width=533", "description": "Day 60 of New Zealand Beaches / Surf Breaks series", "dupe": null, "lat": -39.04624916, "lon": 174.0965968, "check": null, "day_number": 60.0 }, "geometry": { "type": "Point", "coordinates": [ 174.096596799999986, -39.04624916 ] } },
{ "type": "Feature", "properties": { "name": "OPITO BAY", "shopify_link": "https://jackdonald.co.nz/products/opito-bay", "image_url": "https://jackdonald.co.nz/cdn/shop/files/OPITOBAY.jpg?v=1757499343&width=533", "description": "Day 59 of New Zealand Beaches / Surf Breaks series", "dupe": null, "lat": -36.72134668, "lon": 175.8071855, "check": null, "day_number": 59.0 }, "geometry": { "type": "Point", "coordinates": [ 175.8071855, -36.72134668 ] } },
{ "type": "Feature", "properties": { "name": "ONEMANA", "shopify_link": "https://jackdonald.co.nz/products/onemana", "image_url": "https://jackdonald.co.nz/cdn/shop/files/ONEMANABoarder.jpg?v=1757499266&width=533", "description": "Day 58 of New Zealand Beaches / Surf Breaks series", "dupe": null, "lat": -37.1518707, "lon": 175.8803273, "check": null, "day_number": 58.0 }, "geometry": { "type": "Point", "coordinates": [ 175.8803273, -37.1518707 ] } },
{ "type": "Feature", "properties": { "name": "WHIRITOA", "shopify_link": "https://jackdonald.co.nz/products/whiritoa", "image_url": "https://jackdonald.co.nz/cdn/shop/files/WHIRITOABoarder.jpg?v=1757499221&width=533", "description": "Day 57 of New Zealand Beaches / Surf Breaks series", "dupe": null, "lat": -37.28194491, "lon": 175.9026287, "check": null, "day_number": 57.0 }, "geometry": { "type": "Point", "coordinates": [ 175.9026287, -37.28194491 ] } },
{ "type": "Feature", "properties": { "name": "MATAURI BAY", "shopify_link": "https://jackdonald.co.nz/products/matauri-bay", "image_url": "https://jackdonald.co.nz/cdn/shop/files/MATAURIBAYBoarder.jpg?v=1757499158&width=533", "description": "Day 56 of New Zealand Beaches / Surf Breaks series", "dupe": null, "lat": -35.03312202, "lon": 173.9133405, "check": null, "day_number": 56.0 }, "geometry": { "type": "Point", "coordinates": [ 173.9133405, -35.03312202 ] } },
{ "type": "Feature", "properties": { "name": "KAITERITERI BEACH", "shopify_link": "https://jackdonald.co.nz/products/kaiteriteri-beach", "image_url": "https://jackdonald.co.nz/cdn/shop/files/KAITERITERIBEACHBoarder.jpg?v=1757499100&width=533", "description": "Day 55 of New Zealand Beaches / Surf Breaks series", "dupe": null, "lat": -41.03652238, "lon": 173.0179037, "check": null, "day_number": 55.0 }, "geometry": { "type": "Point", "coordinates": [ 173.0179037, -41.03652238 ] } },
{ "type": "Feature", "properties": { "name": "MAKORORI BEACH", "shopify_link": "https://jackdonald.co.nz/products/makorori-beach", "image_url": "https://jackdonald.co.nz/cdn/shop/files/MAKORORIBoarder.jpg?v=1757499040&width=533", "description": "Day 54 of New Zealand Beaches / Surf Breaks series", "dupe": null, "lat": -38.65110471, "lon": 178.1256405, "check": null, "day_number": 54.0 }, "geometry": { "type": "Point", "coordinates": [ 178.1256405, -38.65110471 ] } },
{ "type": "Feature", "properties": { "name": "TE AWANGA", "shopify_link": "https://jackdonald.co.nz/products/te-awanga", "image_url": "https://jackdonald.co.nz/cdn/shop/files/TEAWANGABoarder.jpg?v=1757498974&width=533", "description": "Day 53 of New Zealand Beaches / Surf Breaks series", "dupe": null, "lat": -39.63218089, "lon": 176.9850978, "check": null, "day_number": 53.0 }, "geometry": { "type": "Point", "coordinates": [ 176.9850978, -39.63218089 ] } },
{ "type": "Feature", "properties": { "name": "COOKS BEACH", "shopify_link": "https://jackdonald.co.nz/products/cooks-beach", "image_url": "https://jackdonald.co.nz/cdn/shop/files/COOKSBEACHboarder.jpg?v=1757498928&width=533", "description": "Day 52 of New Zealand Beaches / Surf Breaks series", "dupe": null, "lat": -36.83524861, "lon": 175.7383597, "check": null, "day_number": 52.0 }, "geometry": { "type": "Point", "coordinates": [ 175.7383597, -36.83524861 ] } },
{ "type": "Feature", "properties": { "name": "LANGS BEACH", "shopify_link": "https://jackdonald.co.nz/products/langs-beach", "image_url": "https://jackdonald.co.nz/cdn/shop/files/LANGSBoarder.jpg?v=1757498853&width=533", "description": "Day 51 of New Zealand Beaches / Surf Breaks series", "dupe": null, "lat": -36.04496471, "lon": 174.5338954, "check": null, "day_number": 51.0 }, "geometry": { "type": "Point", "coordinates": [ 174.5338954, -36.04496471 ] } },
{ "type": "Feature", "properties": { "name": "MAHANGA BEACH", "shopify_link": "https://jackdonald.co.nz/products/mahanga-beach", "image_url": "https://jackdonald.co.nz/cdn/shop/files/MAHANGABoarder.jpg?v=1757498796&width=533", "description": "Day 50 of New Zealand Beaches / Surf Breaks series", "dupe": null, "lat": -39.0169365, "lon": 177.8859598, "check": 1.0, "day_number": 50.0 }, "geometry": { "type": "Point", "coordinates": [ 177.8859598, -39.0169365 ] } },
{ "type": "Feature", "properties": { "name": "KUAOTUNU", "shopify_link": "https://jackdonald.co.nz/products/kuaotunu", "image_url": "https://jackdonald.co.nz/cdn/shop/files/KUAOTUNUBoarder.jpg?v=1757498715&width=533", "description": "Day 49 of New Zealand Beaches / Surf Breaks series", "dupe": null, "lat": -36.72376392, "lon": 175.7195908, "check": 1.0, "day_number": 49.0 }, "geometry": { "type": "Point", "coordinates": [ 175.7195908, -36.72376392 ] } },
{ "type": "Feature", "properties": { "name": "RUAKAKA BEACH", "shopify_link": "https://jackdonald.co.nz/products/ruakaka-beach", "image_url": "https://jackdonald.co.nz/cdn/shop/files/RUAKAKAFRAME.jpg?v=1755040224&width=533", "description": "Day 48 of New Zealand Beaches / Surf Breaks series", "dupe": null, "lat": -35.90435243, "lon": 174.4623999, "check": 1.0, "day_number": 48.0 }, "geometry": { "type": "Point", "coordinates": [ 174.4623999, -35.90435243 ] } },
{ "type": "Feature", "properties": { "name": "TONGAPORUTU", "shopify_link": "https://jackdonald.co.nz/products/tongaporutu", "image_url": "https://jackdonald.co.nz/cdn/shop/files/TONGAPORUTUFRAME.jpg?v=1755040164&width=533", "description": "Day 47 of New Zealand Beaches / Surf Breaks series", "dupe": null, "lat": -38.81470815, "lon": 174.5842698, "check": null, "day_number": 47.0 }, "geometry": { "type": "Point", "coordinates": [ 174.584269799999987, -38.81470815 ] } },
{ "type": "Feature", "properties": { "name": "HAHEI BEACH", "shopify_link": "https://jackdonald.co.nz/products/hahei-beach", "image_url": "https://jackdonald.co.nz/cdn/shop/files/HAHEIBEACHFRAME.jpg?v=1755040074&width=533", "description": "Day 46 of New Zealand Beaches / Surf Breaks series", "dupe": null, "lat": -36.83846348, "lon": 175.8068343, "check": null, "day_number": 46.0 }, "geometry": { "type": "Point", "coordinates": [ 175.8068343, -36.83846348 ] } },
{ "type": "Feature", "properties": { "name": "WAIPU COVE", "shopify_link": "https://jackdonald.co.nz/products/waipu-cove", "image_url": "https://jackdonald.co.nz/cdn/shop/files/WAIPUCOVEFRAME_5ec98093-c441-4302-ac1f-e858fb7a59d8.jpg?v=1755040681&width=533", "description": "Day 45 of New Zealand Beaches / Surf Breaks series", "dupe": null, "lat": -36.02914191, "lon": 174.5075393, "check": null, "day_number": 45.0 }, "geometry": { "type": "Point", "coordinates": [ 174.5075393, -36.02914191 ] } },
{ "type": "Feature", "properties": { "name": "SMAILLS BEACH", "shopify_link": "https://jackdonald.co.nz/products/smaills-beach", "image_url": "https://jackdonald.co.nz/cdn/shop/files/SMAILLSBEACHFRAME.jpg?v=1755040286&width=533", "description": "Day 44 of New Zealand Beaches / Surf Breaks series", "dupe": null, "lat": -45.90716617, "lon": 170.5629543, "check": null, "day_number": 44.0 }, "geometry": { "type": "Point", "coordinates": [ 170.5629543, -45.90716617 ] } },
{ "type": "Feature", "properties": { "name": "PATAUA NORTH", "shopify_link": "https://jackdonald.co.nz/products/pataua-north", "image_url": "https://jackdonald.co.nz/cdn/shop/files/PATAUANORTHFRAME.jpg?v=1755040313&width=533", "description": "Day 43 of New Zealand Beaches / Surf Breaks series", "dupe": null, "lat": -35.71067183, "lon": 174.5225563, "check": 1.0, "day_number": 43.0 }, "geometry": { "type": "Point", "coordinates": [ 174.5225563, -35.71067183 ] } },
{ "type": "Feature", "properties": { "name": "OPOUTERE BEACH", "shopify_link": "https://jackdonald.co.nz/products/opoutere-beach", "image_url": "https://jackdonald.co.nz/cdn/shop/files/OPOUTEREBEACHFRAME.jpg?v=1755040336&width=533", "description": "Day 42 of New Zealand Beaches / Surf Breaks series", "dupe": null, "lat": -37.08693744, "lon": 175.8857503, "check": 1.0, "day_number": 42.0 }, "geometry": { "type": "Point", "coordinates": [ 175.885750300000012, -37.08693744 ] } },
{ "type": "Feature", "properties": { "name": "WAIPATIKI BEACH", "shopify_link": "https://jackdonald.co.nz/products/waipatiki-beach", "image_url": "https://jackdonald.co.nz/cdn/shop/files/WAIPATIKIBEACHFRAME.jpg?v=1755040393&width=533", "description": "Day 41 of New Zealand Beaches / Surf Breaks series", "dupe": null, "lat": -39.30118781, "lon": 176.9763049, "check": null, "day_number": 41.0 }, "geometry": { "type": "Point", "coordinates": [ 176.9763049, -39.30118781 ] } },
{ "type": "Feature", "properties": { "name": "OCEAN BEACH", "shopify_link": "https://jackdonald.co.nz/products/ocean-beach", "image_url": "https://jackdonald.co.nz/cdn/shop/files/OCEANBEACHFRAME.jpg?v=1755040461&width=533", "description": "Day 39 of New Zealand Beaches / Surf Breaks series", "dupe": null, "lat": -35.83743094, "lon": 174.5737698, "check": 1.0, "day_number": 39.0 }, "geometry": { "type": "Point", "coordinates": [ 174.5737698, -35.83743094 ] } },
{ "type": "Feature", "properties": { "name": "TAURANGA BAY", "shopify_link": "https://jackdonald.co.nz/products/tauranga-bay", "image_url": "https://jackdonald.co.nz/cdn/shop/files/TAURANGABAYFRAME_ffbf1714-b107-4346-b6f5-0673ac6b13c1.jpg?v=1755040728&width=533", "description": "Day 38 of New Zealand Beaches / Surf Breaks series", "dupe": null, "lat": -41.76680756, "lon": 171.4578175, "check": 1.0, "day_number": 38.0 }, "geometry": { "type": "Point", "coordinates": [ 171.4578175, -41.76680756 ] } },
{ "type": "Feature", "properties": { "name": "TE ARAI", "shopify_link": "https://jackdonald.co.nz/products/te-ari", "image_url": "https://jackdonald.co.nz/cdn/shop/files/TEARIFRAME.jpg?v=1755040532&width=533", "description": "Day 37 of New Zealand Beaches / Surf Breaks series", "dupe": null, "lat": -36.1589856, "lon": 174.6467965, "check": null, "day_number": 37.0 }, "geometry": { "type": "Point", "coordinates": [ 174.6467965, -36.1589856 ] } },
{ "type": "Feature", "properties": { "name": "WHANANAKI BAR", "shopify_link": "https://jackdonald.co.nz/products/whananaki-bar", "image_url": "https://jackdonald.co.nz/cdn/shop/files/WHANANAKIBARFRAME.jpg?v=1755040599&width=533", "description": "Day 36 of New Zealand Beaches / Surf Breaks series", "dupe": null, "lat": -35.51349351, "lon": 174.4701931, "check": null, "day_number": 36.0 }, "geometry": { "type": "Point", "coordinates": [ 174.470193099999989, -35.51349351 ] } },
{ "type": "Feature", "properties": { "name": "SANDY BAY", "shopify_link": "https://jackdonald.co.nz/products/sandy-bay", "image_url": "https://jackdonald.co.nz/cdn/shop/files/SANDYBAY.jpg?v=1753836163&width=533", "description": "Day 35 of New Zealand Beaches / Surf Breaks series", "dupe": null, "lat": -35.55662099, "lon": 174.4748183, "check": null, "day_number": 35.0 }, "geometry": { "type": "Point", "coordinates": [ 174.47481830000001, -35.55662099 ] } },
{ "type": "Feature", "properties": { "name": "THE GAP", "shopify_link": "https://jackdonald.co.nz/products/the-gap", "image_url": "https://jackdonald.co.nz/cdn/shop/files/THEGAPFRAME.jpg?v=1753838725&width=533", "description": "Day 34 of New Zealand Beaches / Surf Breaks series", "dupe": null, "lat": -40.90684707, "lon": 176.2201909, "check": null, "day_number": 34.0 }, "geometry": { "type": "Point", "coordinates": [ 176.2201909, -40.90684707 ] } },
{ "type": "Feature", "properties": { "name": "BETHELLS BEACH", "shopify_link": "https://jackdonald.co.nz/products/bethells-beach", "image_url": "https://jackdonald.co.nz/cdn/shop/files/BETHELLSBEACHFRAME.jpg?v=1753838790&width=533", "description": "Day 33 of New Zealand Beaches / Surf Breaks series", "dupe": null, "lat": -36.89331508, "lon": 174.4431523, "check": null, "day_number": 33.0 }, "geometry": { "type": "Point", "coordinates": [ 174.4431523, -36.89331508 ] } },
{ "type": "Feature", "properties": { "name": "WHAKATANE HEADS", "shopify_link": "https://jackdonald.co.nz/products/whakatane-heads", "image_url": "https://jackdonald.co.nz/cdn/shop/files/WHAKATANEHEADSFRAME.jpg?v=1753442554&width=533", "description": "Day 32 of New Zealand Beaches / Surf Breaks series", "dupe": null, "lat": -37.94336325, "lon": 177.0096538, "check": null, "day_number": 32.0 }, "geometry": { "type": "Point", "coordinates": [ 177.0096538, -37.94336325 ] } },
{ "type": "Feature", "properties": { "name": "WAIMARAMA BEACH", "shopify_link": "https://jackdonald.co.nz/products/waimarama-beach", "image_url": "https://jackdonald.co.nz/cdn/shop/files/WAIMARAMAFRAME.jpg?v=1753442500&width=533", "description": "Day 31 of New Zealand Beaches / Surf Breaks series", "dupe": null, "lat": -39.8168488, "lon": 176.9951538, "check": 1.0, "day_number": 31.0 }, "geometry": { "type": "Point", "coordinates": [ 176.9951538, -39.8168488 ] } },
{ "type": "Feature", "properties": { "name": "NEW BRIGHTON", "shopify_link": "https://jackdonald.co.nz/products/new-brighton", "image_url": "https://jackdonald.co.nz/cdn/shop/files/NEWBRIGHTONFRAME.jpg?v=1753442441&width=533", "description": "Day 30 of New Zealand Beaches / Surf Breaks series", "dupe": null, "lat": -43.50667495, "lon": 172.7317314, "check": null, "day_number": 30.0 }, "geometry": { "type": "Point", "coordinates": [ 172.7317314, -43.50667495 ] } },
{ "type": "Feature", "properties": { "name": "PAUANUI BEACH", "shopify_link": "https://jackdonald.co.nz/products/pauanui-beach", "image_url": "https://jackdonald.co.nz/cdn/shop/files/PAUANUIBEACH.jpg?v=1753442378&width=533", "description": "Day 29 of New Zealand Beaches / Surf Breaks series", "dupe": null, "lat": -37.02742136, "lon": 175.8732061, "check": null, "day_number": 29.0 }, "geometry": { "type": "Point", "coordinates": [ 175.8732061, -37.02742136 ] } },
{ "type": "Feature", "properties": { "name": "MATAKANA ISLAND", "shopify_link": "https://jackdonald.co.nz/products/matakana-island", "image_url": "https://jackdonald.co.nz/cdn/shop/files/MATAKANAISLANDFRAME.jpg?v=1753442324&width=533", "description": "Day 28 of New Zealand Beaches / Surf Breaks series", "dupe": null, "lat": -37.62596809, "lon": 176.1503031, "check": 1.0, "day_number": 28.0 }, "geometry": { "type": "Point", "coordinates": [ 176.1503031, -37.62596809 ] } },
{ "type": "Feature", "properties": { "name": "HICKORY BAY", "shopify_link": "https://jackdonald.co.nz/products/hickory-bay", "image_url": "https://jackdonald.co.nz/cdn/shop/files/HICKORYBAYFRAME.jpg?v=1753442258&width=533", "description": "Day 27 of New Zealand Beaches / Surf Breaks series", "dupe": null, "lat": -43.77638652, "lon": 173.1081482, "check": null, "day_number": 27.0 }, "geometry": { "type": "Point", "coordinates": [ 173.108148199999988, -43.77638652 ] } },
{ "type": "Feature", "properties": { "name": "SAILORS GRAVE", "shopify_link": "https://jackdonald.co.nz/products/sailors-grave", "image_url": "https://jackdonald.co.nz/cdn/shop/files/SAILORSGRAVEFRAME.jpg?v=1753442198&width=533", "description": "Day 26 of New Zealand Beaches / Surf Breaks series", "dupe": null, "lat": -36.96233019, "lon": 175.8429961, "check": null, "day_number": 26.0 }, "geometry": { "type": "Point", "coordinates": [ 175.8429961, -36.96233019 ] } },
{ "type": "Feature", "properties": { "name": "TAUPO BAY", "shopify_link": "https://jackdonald.co.nz/products/taupo-bay", "image_url": "https://jackdonald.co.nz/cdn/shop/files/TAUPOBAYFRAME.jpg?v=1753442141&width=533", "description": "Day 25 of New Zealand Beaches / Surf Breaks series", "dupe": null, "lat": -34.99259639, "lon": 173.7106907, "check": null, "day_number": 25.0 }, "geometry": { "type": "Point", "coordinates": [ 173.710690699999986, -34.99259639 ] } },
{ "type": "Feature", "properties": { "name": "MATAPOURI", "shopify_link": "https://jackdonald.co.nz/products/matapouri", "image_url": "https://jackdonald.co.nz/cdn/shop/files/MATAPOURIFRAME.jpg?v=1753442098&width=533", "description": "Day 24 of New Zealand Beaches / Surf Breaks series", "dupe": null, "lat": -35.56327923, "lon": 174.507052, "check": null, "day_number": 24.0 }, "geometry": { "type": "Point", "coordinates": [ 174.507052, -35.56327923 ] } },
{ "type": "Feature", "properties": { "name": "MANU BAY", "shopify_link": "https://jackdonald.co.nz/products/manu-bay", "image_url": "https://jackdonald.co.nz/cdn/shop/files/MANUBAY.jpg?v=1753442018&width=533", "description": "Day 23 of New Zealand Beaches / Surf Breaks series", "dupe": null, "lat": -37.82116917, "lon": 174.8126945, "check": null, "day_number": 23.0 }, "geometry": { "type": "Point", "coordinates": [ 174.8126945, -37.82116917 ] } },
{ "type": "Feature", "properties": { "name": "MEDLANDS BEACH", "shopify_link": "https://jackdonald.co.nz/products/medlands-beach", "image_url": "https://jackdonald.co.nz/cdn/shop/files/MEDLANDSBEACHFRAMED.jpg?v=1752576798&width=533", "description": "Day 22 of New Zealand Beaches / Surf Breaks series", "dupe": null, "lat": -36.26460649, "lon": 175.4918868, "check": 1.0, "day_number": 22.0 }, "geometry": { "type": "Point", "coordinates": [ 175.4918868, -36.26460649 ] } },
{ "type": "Feature", "properties": { "name": "MAORI BAY", "shopify_link": "https://jackdonald.co.nz/products/maori-bay", "image_url": "https://jackdonald.co.nz/cdn/shop/files/MAORIBAYFRAME.jpg?v=1752576738&width=533", "description": "Day 21 of New Zealand Beaches / Surf Breaks series", "dupe": null, "lat": -36.83362198, "lon": 174.4263609, "check": null, "day_number": 21.0 }, "geometry": { "type": "Point", "coordinates": [ 174.4263609, -36.83362198 ] } },
{ "type": "Feature", "properties": { "name": "MANGAMAUNU", "shopify_link": "https://jackdonald.co.nz/products/mangamanu", "image_url": "https://jackdonald.co.nz/cdn/shop/files/MANGAMANUFRAMED.jpg?v=1752576684&width=533", "description": "Day 20 of New Zealand Beaches / Surf Breaks series", "dupe": null, "lat": -42.30516359, "lon": 173.7516917, "check": null, "day_number": 20.0 }, "geometry": { "type": "Point", "coordinates": [ 173.7516917, -42.30516359 ] } },
{ "type": "Feature", "properties": { "name": "PAKIRI BEACH", "shopify_link": "https://jackdonald.co.nz/products/parkiri-beach", "image_url": "https://jackdonald.co.nz/cdn/shop/files/PARKIRIFRAME.jpg?v=1752576631&width=533", "description": "Day 19 of New Zealand Beaches / Surf Breaks series", "dupe": null, "lat": -36.24340007, "lon": 174.7266308, "check": null, "day_number": 19.0 }, "geometry": { "type": "Point", "coordinates": [ 174.7266308, -36.24340007 ] } },
{ "type": "Feature", "properties": { "name": "SAINT CLAIR", "shopify_link": "https://jackdonald.co.nz/products/saint-clair", "image_url": "https://jackdonald.co.nz/cdn/shop/files/SAINTCLAIRFRAMED.jpg?v=1752576559&width=533", "description": "Day 18 of New Zealand Beaches / Surf Breaks series", "dupe": null, "lat": -45.91171606, "lon": 170.4905388, "check": null, "day_number": 18.0 }, "geometry": { "type": "Point", "coordinates": [ 170.4905388, -45.91171606 ] } },
{ "type": "Feature", "properties": { "name": "BACK BEACH", "shopify_link": "https://jackdonald.co.nz/products/back-beach", "image_url": "https://jackdonald.co.nz/cdn/shop/files/BACKBEACHFRAMED.jpg?v=1752576498&width=533", "description": "Day 17 of New Zealand Beaches / Surf Breaks series", "dupe": null, "lat": -39.06430615, "lon": 174.0199229, "check": null, "day_number": 17.0 }, "geometry": { "type": "Point", "coordinates": [ 174.019922900000012, -39.06430615 ] } },
{ "type": "Feature", "properties": { "name": "SUMNER BEACH", "shopify_link": "https://jackdonald.co.nz/products/sumner-beach", "image_url": "https://jackdonald.co.nz/cdn/shop/files/SUMNERBEACHFRAME.jpg?v=1752576436&width=533", "description": "Day 16 of New Zealand Beaches / Surf Breaks series", "dupe": null, "lat": -43.56489585, "lon": 172.7563295, "check": null, "day_number": 16.0 }, "geometry": { "type": "Point", "coordinates": [ 172.7563295, -43.56489585 ] } },
{ "type": "Feature", "properties": { "name": "TAWHARANUI BEACH", "shopify_link": "https://jackdonald.co.nz/products/tawharanui-beach", "image_url": "https://jackdonald.co.nz/cdn/shop/files/TAWHARANUIFRAME.jpg?v=1752576373&width=533", "description": "Day 15 of New Zealand Beaches / Surf Breaks series", "dupe": null, "lat": -36.36577418, "lon": 174.8277683, "check": null, "day_number": 15.0 }, "geometry": { "type": "Point", "coordinates": [ 174.8277683, -36.36577418 ] } },
{ "type": "Feature", "properties": { "name": "PAPAMOA BEACH", "shopify_link": "https://jackdonald.co.nz/products/papamoa-beach", "image_url": "https://jackdonald.co.nz/cdn/shop/files/PAPAMOAFRAME.jpg?v=1752576311&width=533", "description": "Day 14 of New Zealand Beaches / Surf Breaks series", "dupe": null, "lat": -37.71041756, "lon": 176.3280438, "check": null, "day_number": 14.0 }, "geometry": { "type": "Point", "coordinates": [ 176.328043799999989, -37.71041756 ] } },
{ "type": "Feature", "properties": { "name": "HOT WATER BEACH", "shopify_link": "https://jackdonald.co.nz/products/hot-water-beach", "image_url": "https://jackdonald.co.nz/cdn/shop/files/HOTWATERBEACH.jpg?v=1752576248&width=533", "description": "Day 13 of New Zealand Beaches / Surf Breaks series", "dupe": null, "lat": -36.88729477, "lon": 175.8231737, "check": null, "day_number": 13.0 }, "geometry": { "type": "Point", "coordinates": [ 175.823173700000012, -36.88729477 ] } },
{ "type": "Feature", "properties": { "name": "WAIHI BEACH", "shopify_link": "https://jackdonald.co.nz/products/waihi-beach", "image_url": "https://jackdonald.co.nz/cdn/shop/files/WAIHIBEACHFRAME.jpg?v=1752576196&width=533", "description": "Day 12 of New Zealand Beaches / Surf Breaks series", "dupe": null, "lat": -37.39527529, "lon": 175.9384261, "check": null, "day_number": 12.0 }, "geometry": { "type": "Point", "coordinates": [ 175.938426099999987, -37.39527529 ] } },
{ "type": "Feature", "properties": { "name": "WHANGAPOUA BEACH", "shopify_link": "https://jackdonald.co.nz/products/whangapoua-beach", "image_url": "https://jackdonald.co.nz/cdn/shop/files/WHANGAPOUAFRAME.jpg?v=1752576063&width=533", "description": "Day 11 of New Zealand Beaches / Surf Breaks series", "dupe": null, "lat": -36.70993294, "lon": 175.6114674, "check": null, "day_number": 11.0 }, "geometry": { "type": "Point", "coordinates": [ 175.6114674, -36.70993294 ] } },
{ "type": "Feature", "properties": { "name": "OHOPE", "shopify_link": "https://jackdonald.co.nz/products/ohope", "image_url": "https://jackdonald.co.nz/cdn/shop/files/OHOPEBOARDER.jpg?v=1751357030&width=533", "description": "Day 10 of New Zealand Beaches / Surf Breaks series", "dupe": null, "lat": -37.95664695, "lon": 177.0233716, "check": null, "day_number": 10.0 }, "geometry": { "type": "Point", "coordinates": [ 177.0233716, -37.95664695 ] } },
{ "type": "Feature", "properties": { "name": "SHIPWRECK BAY", "shopify_link": "https://jackdonald.co.nz/products/shipwreck-bay", "image_url": "https://jackdonald.co.nz/cdn/shop/files/SHIPRECKBAY.jpg?v=1751356971&width=533", "description": "Day 9 of New Zealand Beaches / Surf Breaks series", "dupe": null, "lat": -35.17745478, "lon": 173.1182708, "check": null, "day_number": 9.0 }, "geometry": { "type": "Point", "coordinates": [ 173.1182708, -35.17745478 ] } },
{ "type": "Feature", "properties": { "name": "PIHA", "shopify_link": "https://jackdonald.co.nz/products/piha", "image_url": "https://jackdonald.co.nz/cdn/shop/files/PIHA.jpg?v=1751356925&width=533", "description": "Day 8 of New Zealand Beaches / Surf Breaks series", "dupe": null, "lat": -36.95620983, "lon": 174.4668019, "check": null, "day_number": 8.0 }, "geometry": { "type": "Point", "coordinates": [ 174.4668019, -36.95620983 ] } },
{ "type": "Feature", "properties": { "name": "LYALL BAY", "shopify_link": "https://jackdonald.co.nz/products/lyall-bay", "image_url": "https://jackdonald.co.nz/cdn/shop/files/LYALLBAY_0c01e8e2-4f60-41a1-b544-4f7f093c5cbc.jpg?v=1751436482&width=533", "description": "Day 7 of New Zealand Beaches / Surf Breaks series", "dupe": null, "lat": -41.32909921, "lon": 174.8046629, "check": null, "day_number": 7.0 }, "geometry": { "type": "Point", "coordinates": [ 174.804662900000011, -41.32909921 ] } },
{ "type": "Feature", "properties": { "name": "PURAKAUNUI BAY", "shopify_link": "https://jackdonald.co.nz/products/purakanui-bay", "image_url": "https://jackdonald.co.nz/cdn/shop/files/PURAKAUNUIBAY.jpg?v=1751356842&width=533", "description": "Day 6 of New Zealand Beaches / Surf Breaks series", "dupe": null, "lat": -46.54304705, "lon": 169.6130151, "check": null, "day_number": 6.0 }, "geometry": { "type": "Point", "coordinates": [ 169.613015100000013, -46.54304705 ] } },
{ "type": "Feature", "properties": { "name": "WHANGAMATA", "shopify_link": "https://jackdonald.co.nz/products/whangamata-1", "image_url": "https://jackdonald.co.nz/cdn/shop/files/WHANGAMATAPRINT.jpg?v=1751356779&width=533", "description": "Day 5 of New Zealand Beaches / Surf Breaks series", "dupe": null, "lat": -37.20856476, "lon": 175.8770954, "check": null, "day_number": 5.0 }, "geometry": { "type": "Point", "coordinates": [ 175.8770954, -37.20856476 ] } },
{ "type": "Feature", "properties": { "name": "WAINUI BEACH", "shopify_link": "https://jackdonald.co.nz/products/wanui-beach", "image_url": "https://jackdonald.co.nz/cdn/shop/files/WANUIBOARDER.jpg?v=1751356723&width=533", "description": "Day 4 of New Zealand Beaches / Surf Breaks series", "dupe": null, "lat": -38.68883911, "lon": 178.0734144, "check": null, "day_number": 4.0 }, "geometry": { "type": "Point", "coordinates": [ 178.0734144, -38.68883911 ] } },
{ "type": "Feature", "properties": { "name": "TAIRUA", "shopify_link": "https://jackdonald.co.nz/products/tairua", "image_url": "https://jackdonald.co.nz/cdn/shop/files/TAIRUA.jpg?v=1751356654&width=533", "description": "Day 3 of New Zealand Beaches / Surf Breaks series", "dupe": null, "lat": -36.99573605, "lon": 175.8622171, "check": null, "day_number": 3.0 }, "geometry": { "type": "Point", "coordinates": [ 175.8622171, -36.99573605 ] } },
{ "type": "Feature", "properties": { "name": "MANGAWHAI", "shopify_link": "https://jackdonald.co.nz/products/mangawhai", "image_url": "https://jackdonald.co.nz/cdn/shop/files/MANGAWHAI.jpg?v=1751356544&width=533", "description": "Day 2 of New Zealand Beaches / Surf Breaks series", "dupe": null, "lat": -36.08175604, "lon": 174.5988116, "check": null, "day_number": 2.0 }, "geometry": { "type": "Point", "coordinates": [ 174.5988116, -36.08175604 ] } },
{ "type": "Feature", "properties": { "name": "MOUNT MAUNGANUI", "shopify_link": "https://jackdonald.co.nz/products/mount-maunganui", "image_url": "https://jackdonald.co.nz/cdn/shop/files/MOUNTMAUNGANUI.jpg?v=1751356025&width=533", "description": "Day 1 of New Zealand Beaches / Surf Breaks series", "dupe": null, "lat": -37.632679, "lon": 176.182279, "check": null, "day_number": 1.0 }, "geometry": { "type": "Point", "coordinates": [ 176.182279, -37.632679 ] } }
]
}
